{"type":"FeatureCollection","features":[{"type":"Feature","properties":{"shapeName":"聖方濟各堂區 São Francisco Xavier","shapeISO":"","shapeID":"62558664B35044070765760","shapeGroup":"CHN","shapeType":"ADM3"},"geometry":{"type":"Polygon","coordinates":[[[113.55153219995111,22.12834660031541],[113.55175060031002,22.12161600037814],[113.5493111002271,22.119000699922424],[113.55090979984743,22.117989600239923],[113.54972849987041,22.117624399946124],[113.55093070009184,22.117971600309147],[113.5491256995914,22.113784800228416],[113.54999939995241,22.112165200363734],[113.55649940022715,22.10979000000856],[113.56047630034107,22.11331709970443],[113.56228539995129,22.111711299936587],[113.57134539957065,22.11203440026742],[113.57423999977618,22.113890000223364],[113.57344180019902,22.11628209973918],[113.57004279993532,22.117092100220304],[113.57325979989992,22.124010199810925],[113.57549500009429,22.12535839957053],[113.58031200009884,22.123366000140834],[113.5859691998188,22.127931100040257],[113.58988979967455,22.127191699937043],[113.59252379973361,22.129229200367377],[113.589391100419,22.135488200320253],[113.58798200036904,22.13369130001354],[113.58635869979423,22.135511499955783],[113.58315769966816,22.134983999911697],[113.58282109961408,22.136866799862958],[113.58203660030892,22.135281799615427],[113.5803671995867,22.135523799983446],[113.58006779998902,22.138516300386982],[113.5836107996987,22.143008000319014],[113.57863509993001,22.140515700139474],[113.57885849962008,22.13911480010796],[113.5770300996594,22.138160999830347],[113.57162770035814,22.13798339991405],[113.56741799994086,22.135151000418375],[113.56322370041346,22.135236099666315],[113.56275880037845,22.131279699598508],[113.55153219995111,22.12834660031541]]]}},{"type":"Feature","properties":{"shapeName":"路氹填海區 Zona de Aterro entre Taipa e Coloane","shapeISO":"","shapeID":"62558664B22080335511958","shapeGroup":"CHN","shapeType":"ADM3"},"geometry":{"type":"Polygon","coordinates":[[[113.5770300996594,22.138160999830347],[113.5775839003768,22.144745899703537],[113.5880073999216,22.14342509958874],[113.58679889994937,22.14492589991039],[113.58770569985825,22.14765830019047],[113.57740879967639,22.153988799843262],[113.57404940015977,22.152717900410835],[113.57675959977576,22.155450799814616],[113.56916489974037,22.150181900374434],[113.55766260044868,22.15008650029182],[113.55097959982868,22.15245120016283],[113.55316140007858,22.145526299898847],[113.55170130037482,22.14483180024746],[113.55153219995111,22.12834660031541],[113.56275880037845,22.131279699598508],[113.56322370041346,22.135236099666315],[113.56741799994086,22.135151000418375],[113.57162770035814,22.13798339991405],[113.5770300996594,22.138160999830347]]]}},{"type":"Feature","properties":{"shapeName":"嘉模堂區 Nossa Senhora do Carmo","shapeISO":"","shapeID":"62558664B94582625753095","shapeGroup":"CHN","shapeType":"ADM3"},"geometry":{"type":"MultiPolygon","coordinates":[[[[113.54741450017912,22.136112899990394],[113.540172499861,22.135452300283475],[113.54075639998791,22.124057899852232],[113.54655529958745,22.120618799717874],[113.54741450017912,22.136112899990394]]],[[[113.57675959977576,22.155450799814616],[113.58958050033993,22.14753229977589],[113.59448309961545,22.13455149975198],[113.59787770039566,22.134755000143173],[113.58740010033443,22.165314599988847],[113.5851937998541,22.165340899762782],[113.58502049959645,22.16350479980673],[113.57888519959238,22.16154359965742],[113.58368869987362,22.16379369981945],[113.57976530042833,22.170422300448877],[113.58079850005083,22.167311100327083],[113.57988800033104,22.163159300061693],[113.57850360016107,22.162714700423123],[113.57832819998646,22.167591699597324],[113.57674140019549,22.16749409977291],[113.57625120043258,22.16480669976943],[113.57444080040273,22.166207099777864],[113.57349279985294,22.16546239996984],[113.5755439996559,22.17105770025273],[113.57439919956346,22.169536600433787],[113.5727137000772,22.169838400321964],[113.57197279990487,22.167369799976314],[113.56455989961978,22.1707585003046],[113.56440019980948,22.167973999600463],[113.56644199989842,22.167194700175344],[113.56578030032063,22.164971499635044],[113.5568238000784,22.166585399596556],[113.54195130041228,22.163537199682082],[113.53894790022548,22.166057500253487],[113.54173390009942,22.155256500387225],[113.5487994003721,22.148671399965167],[113.54769019994285,22.150976499965566],[113.55004810003982,22.15117330040755],[113.54922159969715,22.148314500413903],[113.55170130037482,22.14483180024746],[113.55316140007858,22.145526299898847],[113.55097959982868,22.15245120016283],[113.55766260044868,22.15008650029182],[113.56916489974037,22.150181900374434],[113.57675959977576,22.155450799814616]]]]}},{"type":"Feature","properties":{"shapeName":"Macau","shapeISO":"","shapeID":"62558664B36300803449517","shapeGroup":"CHN","shapeType":"ADM3"},"geometry":{"type":"MultiPolygon","coordinates":[[[[113.57267563986898,22.21438419457496],[113.57000389256564,22.211217679852098],[113.57148819662302,22.19865057696262],[113.57119133581159,22.195088248124193],[113.56881645021906,22.192812315835738],[113.57297249978114,22.190437430243264],[113.57396203551957,22.190932197662846],[113.57250187466184,22.196573281531755],[113.57999820415387,22.19706731960116],[113.58128459980446,22.198551622759226],[113.58088878568901,22.20458779139352],[113.58504483615036,22.212701983909483],[113.57881076090791,22.214582102082375],[113.57267563986898,22.21438419457496]]],[[[113.5281666000086,22.18216660010853],[113.53160990717151,22.179354630511853],[113.5439791034529,22.18054207285843],[113.54417701096031,22.182818005146885],[113.54120840374492,22.183312773465786],[113.53853665734096,22.186281379781917],[113.53833874983354,22.188854172881804],[113.54041677461453,22.18974475531627],[113.54269270690293,22.186380333985255],[113.5448696858873,22.1872709155204],[113.54615608243728,22.181432655292838],[113.54912468965279,22.18212533021989],[113.55159852854933,22.18598451986975],[113.55506190408369,22.1872709155204],[113.55624934643026,22.185588704854922],[113.55773365048765,22.186083473173824],[113.55823490921375,22.19004050726363],[113.55609485189598,22.19615263983252],[113.5568730550475,22.19729400361541],[113.55928548283885,22.19607481969723],[113.5610980718186,22.199046391078127],[113.56317609659959,22.19894743777411],[113.56036897524802,22.204938867834528],[113.56099911761521,22.20953546918662],[113.55397341414186,22.214780008690525],[113.55449810020718,22.21708979955463],[113.5512123003075,22.216953699753503],[113.55095189981034,22.21543319978241],[113.55084719983847,22.217036100135942],[113.54435550030621,22.21695269970735],[113.54171659984127,22.213233299777016],[113.53494439996416,22.213525000278594],[113.5330832997546,22.21230559962379],[113.53563879979083,22.202305499998886],[113.53361100034749,22.194499999775246],[113.52922200029514,22.188527700093346],[113.53019440035132,22.1879165001464],[113.5281666000086,22.18216660010853]]]]}}]}