{"type":"FeatureCollection","features":[{"type":"Feature","properties":{"shapeName":"Kwai Tsing District","shapeISO":"","shapeID":"62558664B97877522843486","shapeGroup":"CHN","shapeType":"ADM3"},"geometry":{"type":"MultiPolygon","coordinates":[[[[114.08213125025702,22.351040600543342],[114.08361779992163,22.351074399763775],[114.0834022998763,22.348744800432257],[114.08485780044714,22.34843750029046],[114.0842900998083,22.344486300102744],[114.0902384001821,22.343702299921233],[114.09136299970271,22.34192810030163],[114.08970210027178,22.339767300120855],[114.09283839957254,22.338309599808213],[114.08916950017237,22.33084109983696],[114.0921269998612,22.326028299666348],[114.10409499958462,22.32831060005418],[114.10787700042329,22.32686290020274],[114.11291780031627,22.328797900402833],[114.11266020030803,22.32741240036205],[114.11411589962916,22.327447099803862],[114.11770029962918,22.33101819973018],[114.1074097000976,22.36317759996632],[114.10046469998599,22.363782000139224],[114.09631019995584,22.36175250007784],[114.08839999976021,22.362896499773683],[114.08041040021988,22.359858499969846],[114.07898659985176,22.358552499997927],[114.08035469980962,22.3565308995814],[114.07989949986211,22.353090999949757],[114.08213125025702,22.351040600543342]]],[[[114.14661330016372,22.344245899628618],[114.14488550016574,22.349041899564043],[114.14215690042067,22.349348800406858],[114.14139150001779,22.358232200155953],[114.14552809994188,22.361716299667535],[114.14656999960584,22.36452639957372],[114.14488080030878,22.36828580044937],[114.14715899978808,22.370844000250486],[114.14501940022524,22.37429540041245],[114.14966689960784,22.377684199666135],[114.14978629989787,22.379307299692186],[114.1489207995553,22.380243199863855],[114.14634929968054,22.37817490035144],[114.14436780003405,22.378493600299464],[114.14317019984492,22.381441100426514],[114.14490719990738,22.383063800254206],[114.14361590025362,22.384535399589083],[114.13512870042928,22.38154149984041],[114.1374790003556,22.379187699752606],[114.1363567004015,22.372518299579895],[114.1343838998971,22.36993999993109],[114.12339690044666,22.37031259984667],[114.11985170009598,22.363937400290865],[114.11170960521417,22.360302098663],[114.11209149962303,22.35915430023084],[114.11329229960006,22.360058199826085],[114.1163740999848,22.354660399657746],[114.11588059970995,22.35167870011196],[114.11354440025389,22.352462599569378],[114.11547729963775,22.34736910030381],[114.11987530010504,22.348617399773218],[114.12337839959355,22.33813960006256],[114.12872410023715,22.339684200065847],[114.12958310027989,22.33707909972071],[114.12429169980214,22.335462599819152],[114.12669069981598,22.328326500067988],[114.13409139989824,22.330495899566188],[114.13538049981025,22.327566699743443],[114.12263460000679,22.32375120005787],[114.12158000011698,22.321477499886782],[114.12943740021592,22.31751320017412],[114.13208667795789,22.31777937252008],[114.13040489986633,22.321398300191447],[114.13546059972691,22.323817599702522],[114.14215300006094,22.330811700099957],[114.13388960012503,22.33594749987725],[114.13167070014276,22.339267500095104],[114.13354549972507,22.338931900087175],[114.138164499592,22.342064100278037],[114.14087360023655,22.33994540006023],[114.14329289974762,22.341199500156847],[114.1453173995784,22.34000690019832],[114.1487055000589,22.340589400080773],[114.14661330016372,22.344245899628618]]]]}},{"type":"Feature","properties":{"shapeName":"Central and Western District","shapeISO":"","shapeID":"62558664B98275650601054","shapeGroup":"CHN","shapeType":"ADM3"},"geometry":{"type":"Polygon","coordinates":[[[114.16745468568524,22.283226549865446],[114.16316980014619,22.284382200278344],[114.16237829961892,22.287010799908558],[114.15581839999925,22.289002600389722],[114.15422800022213,22.287390999994727],[114.14558380035214,22.29050480005651],[114.13176000012402,22.289522000240197],[114.13471899988201,22.287888999577717],[114.1323130004447,22.288237000337347],[114.12755000023242,22.283969999615863],[114.12228679979603,22.282429799995327],[114.12299399967344,22.28400710024755],[114.11782050031593,22.280247399897632],[114.11628410033097,22.277403999894716],[114.11768896997,22.27379793792454],[114.12362829960637,22.272691400387885],[114.12933060032697,22.27561280039049],[114.13638290035067,22.272035499638662],[114.14322919986773,22.25984500044649],[114.14658009989171,22.25730529969985],[114.14536690006241,22.254712000258678],[114.14685250004288,22.252105999692162],[114.15420099987625,22.256150599870352],[114.15521199973409,22.259305300199514],[114.15831299974525,22.25789849971602],[114.16340620043582,22.25882169966178],[114.16721280043043,22.268322199809745],[114.16558069998939,22.269172800184606],[114.16550730002189,22.27272969981584],[114.16810470037171,22.277432699959206],[114.16823510026973,22.279651400291925],[114.16658850005933,22.279517799706753],[114.16745468568524,22.283226549865446]]]}},{"type":"Feature","properties":{"shapeName":"Eastern District","shapeISO":"","shapeID":"62558664B95701016910844","shapeGroup":"CHN","shapeType":"ADM3"},"geometry":{"type":"Polygon","coordinates":[[[114.24997354304469,22.24664250135038],[114.2515596998204,22.24937839999319],[114.25348440008509,22.248435000375025],[114.2545917002468,22.249308900385472],[114.2539478998757,22.251501399869767],[114.25665160009135,22.256386799611164],[114.25504659982073,22.259365599742694],[114.25742409974248,22.261708900245594],[114.248867000112,22.269240000225864],[114.24749299970222,22.26795500032307],[114.2449789997811,22.27371880028244],[114.2455904002768,22.269536700058723],[114.24313040014795,22.268250499560963],[114.24174180014404,22.269887600232607],[114.24434390035083,22.272720099553],[114.2410475999668,22.27892099970444],[114.2345956001069,22.284445300310438],[114.2263447996728,22.283011299831685],[114.22486879995517,22.28430289985897],[114.22601960032432,22.285667899853763],[114.22221000019147,22.288219999553405],[114.20345539974699,22.293718299859677],[114.20323419979854,22.295107100412395],[114.20307270044486,22.29393970035693],[114.20120910011997,22.293549399984897],[114.20059859984553,22.294823299555674],[114.20081090010297,22.29346360016507],[114.19960390019992,22.294426999806262],[114.19990100023108,22.293278999925974],[114.19228999998359,22.29131300009493],[114.18928521214286,22.288523699709003],[114.19302830021593,22.286920700430016],[114.19243699956792,22.28301420014526],[114.19414049988427,22.28601920022595],[114.19587709974837,22.28630650034478],[114.19343709964255,22.28072200002032],[114.19774129992106,22.27322699972632],[114.20074579997879,22.27436180025694],[114.20256570044683,22.27775669961204],[114.20721660016602,22.270458899958328],[114.20317230036142,22.267518199605263],[114.1983770000985,22.2663686996558],[114.19774139974584,22.257920599656018],[114.20500979966255,22.25936020021311],[114.20625199992992,22.257595699781746],[114.21000720007225,22.257087799562328],[114.21116270029847,22.254681700300296],[114.21272259956834,22.25591149981591],[114.2103539004122,22.25738190035446],[114.21205820022578,22.258424499690932],[114.21208650009191,22.260514900042665],[114.21719340015534,22.257531099680534],[114.22825459996989,22.257230200013794],[114.23374310036388,22.254636899673244],[114.23755619975884,22.257256899985975],[114.24417119994098,22.25367440025343],[114.24746440036188,22.253433800129812],[114.24997354304469,22.24664250135038]]]}},{"type":"Feature","properties":{"shapeName":"Wan Chai District","shapeISO":"","shapeID":"62558664B4543763669481","shapeGroup":"CHN","shapeType":"ADM3"},"geometry":{"type":"Polygon","coordinates":[[[114.16340620043582,22.25882169966178],[114.16334749988732,22.256499300302494],[114.16756590034606,22.257465500432545],[114.17602979963556,22.25412359992424],[114.17851410034552,22.25693080041617],[114.18706469967617,22.254043500007583],[114.18960679981399,22.257305199875134],[114.19774139974584,22.257920599656018],[114.1983770000985,22.2663686996558],[114.20317230036142,22.267518199605263],[114.20721660016602,22.270458899958328],[114.20256570044683,22.27775669961204],[114.20074579997879,22.27436180025694],[114.19774129992106,22.27322699972632],[114.19343709964255,22.28072200002032],[114.19587709974837,22.28630650034478],[114.19414049988427,22.28601920022595],[114.19243699956792,22.28301420014526],[114.19302830021593,22.286920700430016],[114.18928521214286,22.288523699709003],[114.18742300037127,22.288000000199872],[114.18981910007142,22.285118700067983],[114.18322069957571,22.282273700171174],[114.18238550009085,22.285610100425856],[114.18191320043388,22.283075800108122],[114.1802405000991,22.28249850010576],[114.18087999991212,22.28431100005264],[114.17463999993606,22.28289000017344],[114.1743197000942,22.285189199721856],[114.17061129977174,22.282638299717803],[114.16745468568524,22.283226549865446],[114.16658850005933,22.279517799706753],[114.16823510026973,22.279651400291925],[114.16810470037171,22.277432699959206],[114.16550730002189,22.27272969981584],[114.16558069998939,22.269172800184606],[114.16721280043043,22.268322199809745],[114.16340620043582,22.25882169966178]]]}},{"type":"Feature","properties":{"shapeName":"Yantian District","shapeISO":"","shapeID":"62558664B69352053225983","shapeGroup":"CHN","shapeType":"ADM3"},"geometry":{"type":"Polygon","coordinates":[[[114.33457450001322,22.626046500445682],[114.33033510038467,22.628709900241745],[114.3269979995581,22.628794500365927],[114.32333079987654,22.62568039993056],[114.31915009989723,22.625595799806376],[114.3138434001529,22.6287367000387],[114.31344000025592,22.627213500302844],[114.30830130016489,22.62710089978674],[114.30535980031459,22.628764999904888],[114.3027029997437,22.63288119960771],[114.29238799980635,22.636611799694833],[114.2903135003678,22.64247540011968],[114.28098819984564,22.64298490023299],[114.2764256998862,22.644904500442408],[114.270856899926,22.648991300408227],[114.2697162996676,22.653759100302295],[114.26515390043221,22.656607299986945],[114.25635690035074,22.650943799616698],[114.25349710031094,22.643087500287947],[114.25409569985675,22.637072200421755],[114.261211799585,22.631240800222827],[114.2605466996705,22.62461109972253],[114.25535930039143,22.621848600032934],[114.24485140037189,22.623015000042244],[114.23633870027084,22.61828799969146],[114.2299541999264,22.611780499970166],[114.23088530041639,22.60588659958694],[114.2262298995903,22.600790700030814],[114.22456730044064,22.592931500388488],[114.22017790019004,22.587098199922025],[114.21445849975998,22.583905200164907],[114.21572210029478,22.580220800049915],[114.21252980021018,22.57764160017973],[114.20541369958266,22.576290699756044],[114.19889620029949,22.572360399812624],[114.20288650031182,22.56271859998344],[114.19862799998225,22.55666509961469],[114.20849180015648,22.55694020042995],[114.21338439987016,22.554803399557272],[114.21790460021714,22.556046900244326],[114.22130230006121,22.55175449997023],[114.22427779968075,22.550946799954886],[114.22695119993796,22.548023700233614],[114.22546309984227,22.545274300068968],[114.22634750033694,22.543670000370298],[114.22769889988433,22.54402699974628],[114.24178580037449,22.559772199727263],[114.24488709985985,22.557124299746704],[114.25276729957125,22.563181199552787],[114.24955179967583,22.566629999774705],[114.2494162997225,22.570919800108754],[114.25379850000081,22.566220399951533],[114.26589050004657,22.57596029962815],[114.27480939963414,22.56638839960499],[114.2887268004016,22.566891699792166],[114.27334639961668,22.583389699774898],[114.27102209998998,22.581673699781447],[114.26918960002013,22.58350629957613],[114.26606910000896,22.583594100387472],[114.27082290015676,22.5850361003358],[114.26826359958557,22.58571429977519],[114.2667146000988,22.589286399747607],[114.27096719997633,22.585938900060228],[114.27105199975006,22.584095899606154],[114.27520510043507,22.589282000264177],[114.27925989982452,22.588739999551365],[114.27996520033378,22.585887900406306],[114.28325189955558,22.58860510034515],[114.284019200226,22.587850099702393],[114.28149789960844,22.58546870032029],[114.28380029984407,22.582955400071683],[114.28847030026418,22.58209199964614],[114.29677570033834,22.573142499726657],[114.30000970018762,22.57279699998162],[114.30231309956991,22.58404170016439],[114.30209889994433,22.587394100257598],[114.29957519993559,22.59026940011279],[114.30848669990132,22.59844789955099],[114.30506599989599,22.59867559979915],[114.30709109957468,22.600798200376687],[114.30872649962828,22.598605199970052],[114.3138964997238,22.60121929983086],[114.31432020001728,22.599285500225733],[114.31787999996209,22.597499999725244],[114.32265540002675,22.598273000298775],[114.32059610003,22.601028399840857],[114.32714349997264,22.605009899986953],[114.33467950035867,22.60075120000795],[114.33626029987295,22.594039500222834],[114.34559003944878,22.599989637012186],[114.34545469957482,22.605449600119016],[114.34347450034795,22.606194399751814],[114.33922939991692,22.60472500015868],[114.33276619990022,22.605855900329573],[114.33782699981623,22.6168890997522],[114.33703529963941,22.619299200098055],[114.33820219967185,22.62102259971323],[114.33457450001322,22.626046500445682]]]}},{"type":"Feature","properties":{"shapeName":"Wong Tai Sin District","shapeISO":"","shapeID":"62558664B27015201610030","shapeGroup":"CHN","shapeType":"ADM3"},"geometry":{"type":"Polygon","coordinates":[[[114.17969330040557,22.348736100390795],[114.18184029959025,22.344122900251705],[114.18442189975099,22.343070699753014],[114.18313560032777,22.339730099664393],[114.18619079966572,22.337887500307943],[114.18716240022468,22.33249320030103],[114.19074320023856,22.33339759991935],[114.19252690029623,22.331291799576945],[114.19177449959352,22.3304607001013],[114.19440570006304,22.3303967996726],[114.1980634002058,22.333548200389203],[114.20460880005612,22.33484279965552],[114.20730089991662,22.332764200207748],[114.21100849984248,22.334336600054087],[114.21405469966476,22.332277899905193],[114.22419900018372,22.33446230009514],[114.22106920028341,22.353186700405956],[114.22240510001541,22.35824169969476],[114.21776560010244,22.35829530018799],[114.21375050038534,22.357019100151376],[114.21437410018461,22.35576380035917],[114.20902330038507,22.355912999685245],[114.20680050004307,22.354649099676237],[114.19895079993955,22.35558259955735],[114.19681919984623,22.35282259998303],[114.19127420044401,22.352769100213834],[114.19143500012524,22.34979800007767],[114.1868085997371,22.35039299963728],[114.17969330040557,22.348736100390795]]]}},{"type":"Feature","properties":{"shapeName":"Yau Tsim Mong District","shapeISO":"","shapeID":"62558664B72696326018605","shapeGroup":"CHN","shapeType":"ADM3"},"geometry":{"type":"Polygon","coordinates":[[[114.15293901902055,22.322899150875173],[114.15205699993066,22.3219274999542],[114.15366510016429,22.32265820001595],[114.15496800017308,22.32100909969023],[114.15489849966605,22.315767099871834],[114.15505930024653,22.31683220024587],[114.15937400011012,22.316821199738627],[114.15992749955456,22.31554020002028],[114.15992949964675,22.30703810022817],[114.15719260005847,22.303412399762465],[114.15414459979354,22.304760700246163],[114.15523869970627,22.298678800186508],[114.16692159995193,22.300883400048917],[114.16695590009476,22.29928730036869],[114.1648341997386,22.29865089961936],[114.16741749961795,22.299154500180066],[114.16550000022494,22.29797099956204],[114.16762900037816,22.29814999972274],[114.16607580015807,22.29701010003612],[114.16783859997145,22.29723249968015],[114.16814239995188,22.295839400368095],[114.16474370006176,22.294228700194424],[114.16837100042142,22.294896400048856],[114.16844100005221,22.292970199715],[114.17322849959567,22.292876400425598],[114.17487109962156,22.293001899917783],[114.18121679961564,22.299521900215552],[114.18261399983624,22.299541699689712],[114.18227000016043,22.2972244003858],[114.18306919978386,22.299506000201802],[114.18423519959481,22.298679200384868],[114.18688926173013,22.29979546408947],[114.18479430001696,22.304005999976994],[114.18272959959143,22.30471340040316],[114.17540180035292,22.31429680005732],[114.17268170010038,22.321568100287664],[114.17455739990419,22.326636700023755],[114.16057840007318,22.326226600177506],[114.16195889988342,22.32470939981897],[114.15818469976409,22.324610600299025],[114.15841419955575,22.321856799751572],[114.1549008999566,22.325105099720645],[114.15293901902055,22.322899150875173]]]}},{"type":"Feature","properties":{"shapeName":"Southern District","shapeISO":"","shapeID":"62558664B17954879858679","shapeGroup":"CHN","shapeType":"ADM3"},"geometry":{"type":"MultiPolygon","coordinates":[[[[114.11768896997,22.27379793792454],[114.12249569971686,22.270175000176152],[114.13205579973544,22.25524050034886],[114.13216459971659,22.252197699963915],[114.13514969959897,22.249658400314956],[114.154980099652,22.246658500289584],[114.16178480012843,22.247429300222052],[114.16001640023671,22.245954199826485],[114.16421190035896,22.24537649962582],[114.16356209971116,22.24303050025742],[114.16563140016899,22.241465000009782],[114.16561099994772,22.239751900329964],[114.16268659980676,22.23780079956731],[114.16439010012311,22.238191099939343],[114.16526779976925,22.236195900020846],[114.16707950021885,22.235971199910978],[114.16616429974272,22.23302240026362],[114.17109810009731,22.22997599989253],[114.17333600005645,22.230541300240873],[114.17534690033926,22.23799750018452],[114.17935509955828,22.244551000228512],[114.18576119981958,22.245717300413162],[114.18723769956023,22.244734700246283],[114.18818189957506,22.24272110019865],[114.1867232001157,22.241444599788508],[114.18845129958788,22.237304899901233],[114.19128369998282,22.23603370009522],[114.19459390028828,22.23751860040312],[114.19825130005756,22.234544699778098],[114.19820889972095,22.230067700164284],[114.19634709983882,22.228948799647412],[114.19736319975198,22.224928500050282],[114.19376890001479,22.224228799619482],[114.19642900019824,22.221927799628304],[114.20083300004296,22.220968800369917],[114.20209459958619,22.218021200418093],[114.19726090007055,22.21434439957443],[114.19722629955413,22.210424500290515],[114.20011920004106,22.210495300317916],[114.20169340033021,22.212794200392068],[114.20531370036701,22.212390599946275],[114.2070369003327,22.214055999584787],[114.20646719960166,22.21559119987404],[114.21039720007082,22.2184810003979],[114.21339290026219,22.21636020026307],[114.2148772996477,22.212360899835687],[114.2117021001718,22.208814300139863],[114.21098739994864,22.20031909994657],[114.21119860033525,22.196969100143917],[114.21397969980342,22.194028600339664],[114.22198990011384,22.195319999818196],[114.2240299995849,22.197029899710174],[114.21839830014153,22.208800400218365],[114.22289999963539,22.212699900180326],[114.22258000016689,22.214500000274825],[114.21458700028984,22.219090899925163],[114.21428909986219,22.22169350015497],[114.21494670033007,22.224271299780696],[114.21818630025757,22.22641989975864],[114.21886549974306,22.229002300315983],[114.22153289972357,22.22957279964504],[114.2229778998103,22.23251829967984],[114.22707439986368,22.229741599695103],[114.22947220018193,22.230148800127097],[114.23014819987964,22.231673300282637],[114.22888989994897,22.237489900338687],[114.22449200020571,22.23846390028882],[114.22340510026527,22.24483740012596],[114.22170079955231,22.244902500250248],[114.22404159993994,22.24664730013285],[114.22514749985726,22.24673469984657],[114.22611739979823,22.24131800042545],[114.2310441000053,22.241389500125365],[114.2335246001802,22.239196800092316],[114.2338849998929,22.24121479962338],[114.23477989997252,22.24042999994458],[114.23364089960785,22.2360800997169],[114.23677790037982,22.225726599802783],[114.2357322001809,22.222602800179118],[114.23819690016683,22.22039349956043],[114.23900810034365,22.222240600023724],[114.24130710024258,22.221749500039436],[114.2408776002211,22.219262700113575],[114.23724309988916,22.21953360019552],[114.24179910044813,22.218039999846155],[114.24313760012024,22.212169599647382],[114.24127270027498,22.210958800108585],[114.24220360021604,22.20824350043722],[114.24690610033633,22.206730099714378],[114.25218450021453,22.208343200178604],[114.25515570017546,22.205987200349057],[114.25608169971076,22.20825340017433],[114.25725150005678,22.20690830037779],[114.26103579956259,22.207433999979173],[114.25824790032038,22.209488600118846],[114.25843010026892,22.21111010025095],[114.25455010030691,22.211180000057027],[114.25577009991025,22.212740000050985],[114.25506549997294,22.2203780995697],[114.25042290009685,22.22749010018805],[114.25270909994504,22.229113100389327],[114.25631500003726,22.227888999877507],[114.25613640007487,22.22926210006591],[114.25933700000257,22.229197800338284],[114.26011010040088,22.23081990031818],[114.25545609981918,22.229798700349818],[114.2521025998551,22.231330399578326],[114.25345870015894,22.236017899906187],[114.25025720000986,22.238591999721052],[114.25040309972337,22.242023999707897],[114.246987099575,22.243724099687483],[114.24743480007601,22.246339900166333],[114.24997354304469,22.24664250135038],[114.24746440036188,22.253433800129812],[114.24417119994098,22.25367440025343],[114.23755619975884,22.257256899985975],[114.23374310036388,22.254636899673244],[114.22825459996989,22.257230200013794],[114.21719340015534,22.257531099680534],[114.21208650009191,22.260514900042665],[114.21205820022578,22.258424499690932],[114.2103539004122,22.25738190035446],[114.21272259956834,22.25591149981591],[114.21116270029847,22.254681700300296],[114.21000720007225,22.257087799562328],[114.20625199992992,22.257595699781746],[114.20500979966255,22.25936020021311],[114.19774139974584,22.257920599656018],[114.18960679981399,22.257305199875134],[114.18706469967617,22.254043500007583],[114.17851410034552,22.25693080041617],[114.17602979963556,22.25412359992424],[114.16756590034606,22.257465500432545],[114.16334749988732,22.256499300302494],[114.16340620043582,22.25882169966178],[114.15831299974525,22.25789849971602],[114.15521199973409,22.259305300199514],[114.15420099987625,22.256150599870352],[114.14685250004288,22.252105999692162],[114.14536690006241,22.254712000258678],[114.14658009989171,22.25730529969985],[114.14322919986773,22.25984500044649],[114.13638290035067,22.272035499638662],[114.12933060032697,22.27561280039049],[114.12362829960637,22.272691400387885],[114.11768896997,22.27379793792454]]],[[[114.15456760041445,22.235633599810853],[114.15922849969559,22.233840400214376],[114.16046869987065,22.236145100016415],[114.1631755000493,22.236295599762173],[114.16058590041905,22.23639390015842],[114.15942470028972,22.245174299654252],[114.14831750015253,22.245627100210584],[114.14404840041345,22.243814399714836],[114.15456760041445,22.235633599810853]]]]}},{"type":"Feature","properties":{"shapeName":"Sham Shui Po District","shapeISO":"","shapeID":"62558664B63835421457793","shapeGroup":"CHN","shapeType":"ADM3"},"geometry":{"type":"Polygon","coordinates":[[[114.13208667795789,22.31777937252008],[114.13412059998575,22.31364450019356],[114.13359519985863,22.3182193001806],[114.13746489988523,22.31868460041403],[114.1381664996843,22.31514300004949],[114.1352135002029,22.31454150019016],[114.13847460022271,22.315035499588703],[114.13847429984912,22.31810039991359],[114.14249510036859,22.315102800353998],[114.14762739998457,22.321801999562695],[114.14461250016677,22.324433000382726],[114.14522410031202,22.3233102004055],[114.14312299982669,22.321534099619043],[114.14121540017061,22.323312999994982],[114.14369640036864,22.324939500357686],[114.14055020043145,22.326656500397235],[114.14136120005935,22.32779080000546],[114.1431355004031,22.3267754995897],[114.14459000002853,22.328959299931796],[114.15293901902055,22.322899150875173],[114.1549008999566,22.325105099720645],[114.15841419955575,22.321856799751572],[114.15818469976409,22.324610600299025],[114.16195889988342,22.32470939981897],[114.16057840007318,22.326226600177506],[114.17455739990419,22.326636700023755],[114.176817100329,22.333987899621945],[114.17439500032901,22.340756500412226],[114.17307990011739,22.340653699808456],[114.17411659990125,22.344131600293167],[114.17290409974441,22.346949699668983],[114.16634870033226,22.34575899997793],[114.16347400032487,22.348769000289167],[114.15867820003893,22.345568900384478],[114.15270190017259,22.346081700110403],[114.1513385000718,22.347340500064092],[114.15075250002792,22.34508760031258],[114.14661330016372,22.344245899628618],[114.1487055000589,22.340589400080773],[114.1453173995784,22.34000690019832],[114.14329289974762,22.341199500156847],[114.14087360023655,22.33994540006023],[114.138164499592,22.342064100278037],[114.13354549972507,22.338931900087175],[114.13167070014276,22.339267500095104],[114.13388960012503,22.33594749987725],[114.14215300006094,22.330811700099957],[114.13546059972691,22.323817599702522],[114.13040489986633,22.321398300191447],[114.13208667795789,22.31777937252008]]]}},{"type":"Feature","properties":{"shapeName":"Kwun Tong District","shapeISO":"","shapeID":"62558664B58086375250636","shapeGroup":"CHN","shapeType":"ADM3"},"geometry":{"type":"Polygon","coordinates":[[[114.20460880005612,22.33484279965552],[114.20511620025252,22.327758900153185],[114.20172170019634,22.323747799721218],[114.21080379975558,22.31613249981507],[114.21035408387388,22.31372742038417],[114.21344210037273,22.315538000278536],[114.22065319998524,22.308473300402568],[114.21877290014925,22.306748999666638],[114.22103380026977,22.307990100063137],[114.22128620039791,22.305878699642335],[114.22394900034612,22.306667799879108],[114.22259619965496,22.305312499971933],[114.22895540027162,22.298823299655623],[114.23530320018256,22.298579899942467],[114.23614649986109,22.296949299570542],[114.23274069982347,22.29532430017639],[114.23708990037869,22.29013609960134],[114.23646960019198,22.29105909989761],[114.2386336001606,22.291578499748027],[114.23665780041722,22.288101600208734],[114.24340709995772,22.285653099710828],[114.24200850039199,22.286475800417918],[114.2410338996948,22.29174929989034],[114.24289549992739,22.29470629955614],[114.24541049989466,22.29492179960141],[114.24548449970996,22.29688149968149],[114.24383269961947,22.30203609978622],[114.24200200009227,22.302506000051892],[114.23991419968058,22.30584729981308],[114.24052200019025,22.308551099853446],[114.24565009997218,22.313556700281538],[114.24161180044428,22.316542599661318],[114.24299249990406,22.321669999770734],[114.23942199982548,22.31940709955802],[114.23644190017365,22.32220369974101],[114.23408579962006,22.322122199579894],[114.22927389967083,22.3304850996077],[114.22871349972831,22.334420999629458],[114.22419900018372,22.33446230009514],[114.21405469966476,22.332277899905193],[114.21100849984248,22.334336600054087],[114.20730089991662,22.332764200207748],[114.20460880005612,22.33484279965552]]]}},{"type":"Feature","properties":{"shapeName":"Kowloon City District","shapeISO":"","shapeID":"62558664B38801129228209","shapeGroup":"CHN","shapeType":"ADM3"},"geometry":{"type":"Polygon","coordinates":[[[114.17969330040557,22.348736100390795],[114.17309770039867,22.3482580999314],[114.17290409974441,22.346949699668983],[114.17411659990125,22.344131600293167],[114.17307990011739,22.340653699808456],[114.17439500032901,22.340756500412226],[114.176817100329,22.333987899621945],[114.17455739990419,22.326636700023755],[114.17268170010038,22.321568100287664],[114.17540180035292,22.31429680005732],[114.18272959959143,22.30471340040316],[114.18479430001696,22.304005999976994],[114.18688926173013,22.29979546408947],[114.19314330012321,22.30274589960362],[114.19391290036015,22.308308999660653],[114.19180810006378,22.309898000092687],[114.19201909990159,22.31449389997357],[114.1953509999488,22.320311199702132],[114.21591200023863,22.303282099689227],[114.21734849993334,22.304894100282525],[114.21525630003828,22.308172300011677],[114.20007850032255,22.320237299711664],[114.20078339973418,22.322112899690637],[114.21035408387388,22.31372742038417],[114.21080379975558,22.31613249981507],[114.20172170019634,22.323747799721218],[114.20511620025252,22.327758900153185],[114.20460880005612,22.33484279965552],[114.1980634002058,22.333548200389203],[114.19440570006304,22.3303967996726],[114.19177449959352,22.3304607001013],[114.19252690029623,22.331291799576945],[114.19074320023856,22.33339759991935],[114.18716240022468,22.33249320030103],[114.18619079966572,22.337887500307943],[114.18313560032777,22.339730099664393],[114.18442189975099,22.343070699753014],[114.18184029959025,22.344122900251705],[114.17969330040557,22.348736100390795]]]}}]}